NAYIF-1 (EO-88)         
1 42017U 17008BX  23098.74433884  .00097280  00000+0  12402-2 0  9999
2 42017  97.2200 168.0662 0003738 233.4069 126.6844 15.58976078342582
ZHUHAI-1 02 (CAS-4B)    
1 42759U 17034B   23098.60933708  .00010906  00000+0  56644-3 0  9993
2 42759  43.0169 142.1063 0010975   4.6733 131.9651 15.16096082321071
ZHUHAI-1 01 (CAS-4A)    
1 42761U 17034D   23098.62828065  .00010862  00000+0  56333-3 0  9993
2 42761  43.0161 140.5563 0011573   7.1385 136.3039 15.16146794321085
MAX VALIER SAT          
1 42778U 17036P   23098.32114706  .00021980  00000+0  63706-3 0  9995
2 42778  97.1657 134.9371 0007871   8.5115 351.6261 15.35533336321991
RADFXSAT (FOX-1B)       
1 43017U 17073E   23098.67698509  .00008195  00000+0  58501-3 0  9999
2 43017  97.6392 345.7728 0235160 298.8646  58.9152 14.85120456290860
FOX-1D (AO-92)          
1 43137U 18004AC  23098.19022429  .00034391  00000+0  83050-3 0  9990
2 43137  97.3323 176.8650 0005750  44.9908 315.1803 15.41092007291508
DIWATA-2B               
1 43678U 18084H   23098.70280096  .00003046  00000+0  29730-3 0  9999
2 43678  98.0089 241.3276 0010332  38.0730 322.1197 14.93158329241893
ES'HAIL 2               
1 43700U 18090A   23098.56715976  .00000153  00000+0  00000+0 0  9997
2 43700   0.0200 229.3018 0001226 162.9012  34.3361  1.00269673 15982
FOX-1CLIFF (AO-95)      
1 43770U 18099N   23098.15733074  .00005445  00000+0  45286-3 0  9995
2 43770  97.5779 161.5949 0013170   7.7392 352.4032 14.99037544237111
ITASAT 1                
1 43786U 18099AE  23098.48047068  .00004131  00000+0  34641-3 0  9993
2 43786  97.5832 162.9435 0014374   3.9088 356.2244 14.98842418237200
JY1SAT (JO-97)          
1 43803U 18099AX  23098.15784110  .00005925  00000+0  48087-3 0  9994
2 43803  97.5759 162.5610 0013257 352.4740   7.6283 14.99941464237195
UWE-4                   
1 43880U 18111E   23098.26282554  .00007281  00000+0  56904-3 0  9995
2 43880  97.6443   4.5533 0018272  55.2292 305.0649 15.01255026233870
NEXUS (FO-99)           
1 43937U 19003F   23098.86248569  .00046218  00000+0  95618-3 0  9991
2 43937  97.0958 127.2512 0016345 162.2582 197.9242 15.45511774235319
JAISAT-1                
1 44419U 19038F   23098.51168197  .00024340  00000+0  92285-3 0  9994
2 44419  97.6715  78.1082 0015809 175.8750 184.2621 15.26756164207894
DUCHIFAT-3              
1 44854U 19089C   23098.87309256  .00010515  00000+0  73023-3 0  9993
2 44854  36.9637 145.1781 0007611 114.2293  54.3737 15.05029787182380
CAS-6 (TIANQIN 1)       
1 44881U 19093C   23098.84232933  .00001573  00000+0  20294-3 0  9998
2 44881  97.8636 178.4753 0013692 307.8232  52.1719 14.82354338178526
RS-44 & BREEZE-KM R/B   
1 44909U 19096E   23098.32805957  .00000030  00000+0  78393-4 0  9998
2 44909  82.5255  34.3585 0217421 350.6331   9.0743 12.79719817153229
HUSKYSAT-1 (HO-107)     
1 45119U 19071J   23098.81780202  .02938686  11857-4  13367-2 0  9998
2 45119  51.6158  18.1156 0008603 210.7934 149.2581 16.21161886179415
BY70-2                  
1 45857U 20042B   23098.86593037  .00024410  00000+0  26808-2 0  9996
2 45857  97.9276 178.6686 0009644 223.8003 136.2391 14.87612078149221
SALSAT                  
1 46495U 20068K   23098.42110236  .00005592  00000+0  37685-3 0  9997
2 46495  97.7641  45.7504 0015866   4.3499 355.7863 15.06988567138569
RADFXSAT-2 (AO-109)     
1 47311U 21002C   23098.19138129  .00026179  00000+0  75832-3 0  9999
2 47311  60.6820 326.9032 0027992 138.5700 221.7523 15.35124276123529
UVSQ-SAT                
1 47438U 21006AB  23098.13898482  .00014836  00000+0  64923-3 0  9998
2 47438  97.3923 156.3370 0008975 334.7406  25.3390 15.22113447121985
DIY-1 (ARDUIQUBE)       
1 47963U 21022AH  23098.26272155  .00107006  00000+0  27024-2 0  9998
2 47963  97.5051   4.1118 0010967 159.8619 200.3061 15.39349003111760
XW-3 (CAS-9)            
1 50466U 21131B   23098.90901574  .00000888  00000+0  30314-3 0  9993
2 50466  98.5528 180.6726 0003950   4.5375 355.5848 14.38811571 67393
TEVEL-3                 
1 50988U 22002E   23098.93041837  .00023556  00000+0  10237-2 0  9998
2 50988  97.4405 166.4874 0009822 118.1948  56.5629 15.22242607 68211
TEVEL-8                 
1 50989U 22002F   23098.67904454  .00023725  00000+0  10332-2 0  9997
2 50989  97.4422 166.2903 0009509 116.8835  34.3134 15.22171951 68177
TEVEL-5                 
1 50998U 22002Q   23098.89410111  .00024625  00000+0  10473-2 0  9999
2 50998  97.4393 166.7589 0011196 113.9347 333.5004 15.22956285 68238
TEVEL-6                 
1 50999U 22002R   23098.89339549  .00024647  00000+0  10481-2 0  9998
2 50999  97.4391 166.7548 0010989 113.6907 337.6615 15.22961357 68239
TEVEL-1                 
1 51013U 22002AF  23098.79236814  .00023557  00000+0  10251-2 0  9990
2 51013  97.4402 166.3022 0009679 119.3304 336.3523 15.22198153 68196
TEVEL-7                 
1 51062U 22002CG  23098.87224404  .00023543  00000+0  10248-2 0  9996
2 51062  97.4413 166.4563 0009620 117.5979   2.5638 15.22190219 68203
TEVEL-4                 
1 51063U 22002CH  23098.87619087  .00023495  00000+0  10239-2 0  9998
2 51063  97.4411 166.4495 0009692 117.4268   2.5284 15.22150684 68204
TEVEL-2                 
1 51069U 22002CP  23098.85484215  .00023594  00000+0  10254-2 0  9992
2 51069  97.4403 166.3862 0009794 118.6965 351.9393 15.22240393 68207
GREENCUBE               
1 53106U 22080B   23088.05176028 -.00000003  00000+0  00000+0 0  9999
2 53106  70.1795 347.5677 0008286 204.3079 155.7190  6.42557135 16603
RS29S (SXC3-2110 CYCLO*)
1 53373U 22096D   23098.87316068  .00035035  00000+0  10476-2 0  9996
2 53373  97.4202   4.5743 0003491  78.7395 345.7919 15.34481166 37047
RS32S (SXC3-212 MONITO*)
1 53374U 22096E   23098.87708905  .00031626  00000+0  95797-3 0  9994
2 53374  97.4180   4.5474 0003384  70.8051 355.4986 15.34094367 37042
RS34S (SXC3-218 KUZBAS*)
1 53375U 22096F   23098.88845499  .00027449  00000+0  86934-3 0  9997
2 53375  97.4207   4.4027 0003322  73.6794 350.7489 15.32703765 37035
RS23S (SXC3-21 UTMN)    
1 53376U 22096G   23098.80626152  .00028488  00000+0  89011-3 0  9996
2 53376  97.4206   4.3663 0003374  70.9160  15.1916 15.33129269 37022
RS28S (SXC3-214 MIET-A*)
1 53377U 22096H   23098.81660690  .00025630  00000+0  81530-3 0  9997
2 53377  97.4201   4.3397 0003230  66.3613 334.2208 15.32578245 37025
RS26S (KAI-1)           
1 53378U 22096J   23098.73703402  .00021573  00000+0  70856-3 0  9999
2 53378  97.4223   4.1534 0002963  64.9959 353.5373 15.31586202 37006
RS19S (SXC3-219 ISOI)   
1 53381U 22096M   23098.74162713  .00026524  00000+0  82456-3 0  9998
2 53381  97.4202   4.4481 0002461 355.6515  89.0918 15.33308105 37026
RS21S (CUBESX-HSE-2)    
1 53383U 22096P   23098.79456797  .00027947  00000+0  86269-3 0  9999
2 53383  97.4204   4.5370 0002742 354.6888  90.5051 15.33521943 37035
RS30S (SXC3-217 SIREN)  
1 53384U 22096Q   23098.77049324  .00023520  00000+0  74818-3 0  9992
2 53384  97.4213   4.4223 0002626 346.7577 101.0524 15.32597292 37021
RS20S (GEOSCAN-EDELVEIS)
1 53385U 22096R   23098.77900420  .00037000  00000+0  10580-2 0  9999
2 53385  97.4196   4.8492 0002531 350.1852  93.9082 15.35879742 37084
RS33S (SXC3-215 VIZARD) 
1 53386U 22096S   23098.89098397  .00046041  00000+0  12202-2 0  9992
2 53386  97.4195   5.2983 0002534 347.3359  76.9516 15.38195445 37118
CAS-5A (FO-118)         
1 54684U 22167C   23098.93114390  .00016830  00000+0  97472-3 0  9996
2 54684  97.5497 237.1138 0014118 210.3490 275.8069 15.12202472 18203
